CCSDS_OMM_VERS = 2.0
CREATION_DATE  = 
ORIGINATOR     = 

OBJECT_NAME    = DELTA 2 R/B(1)
OBJECT_ID      = 1990-008B
CENTER_NAME    = EARTH
REF_FRAME      = TEME
TIME_SYSTEM    = UTC
MEAN_ELEMENT_THEORY = SGP/SGP4

EPOCH          = 2026-02-07T05:45:37.574208
MEAN_MOTION    = 15.51758166
ECCENTRICITY   = .00951415
INCLINATION    = 35.6060
RA_OF_ASC_NODE = 14.0358
ARG_OF_PERICENTER = 334.6672
MEAN_ANOMALY   = 24.9417

EPHEMERIS_TYPE = 0
CLASSIFICATION_TYPE = U
NORAD_CAT_ID   = 20453
ELEMENT_SET_NO = 999
REV_AT_EPOCH   = 92139
BSTAR          = .11271556E-2
MEAN_MOTION_DOT = .85042E-3
MEAN_MOTION_DDOT = 0

CCSDS_OMM_VERS = 2.0
CREATION_DATE  = 
ORIGINATOR     = 

OBJECT_NAME    = COSMOS 2058
OBJECT_ID      = 1990-010A
CENTER_NAME    = EARTH
REF_FRAME      = TEME
TIME_SYSTEM    = UTC
MEAN_ELEMENT_THEORY = SGP/SGP4

EPOCH          = 2026-02-07T04:32:10.658400
MEAN_MOTION    = 15.11040033
ECCENTRICITY   = .00120773
INCLINATION    = 82.4636
RA_OF_ASC_NODE = 77.4750
ARG_OF_PERICENTER = 82.1778
MEAN_ANOMALY   = 278.0822

EPHEMERIS_TYPE = 0
CLASSIFICATION_TYPE = U
NORAD_CAT_ID   = 20465
ELEMENT_SET_NO = 999
REV_AT_EPOCH   = 93763
BSTAR          = .30480798E-3
MEAN_MOTION_DOT = .5131E-4
MEAN_MOTION_DDOT = 0

CCSDS_OMM_VERS = 2.0
CREATION_DATE  = 
ORIGINATOR     = 

OBJECT_NAME    = SL-14 R/B
OBJECT_ID      = 1990-010B
CENTER_NAME    = EARTH
REF_FRAME      = TEME
TIME_SYSTEM    = UTC
MEAN_ELEMENT_THEORY = SGP/SGP4

EPOCH          = 2026-02-07T04:49:08.529024
MEAN_MOTION    = 14.83542264
ECCENTRICITY   = .00209178
INCLINATION    = 82.5030
RA_OF_ASC_NODE = 296.0283
ARG_OF_PERICENTER = 43.5743
MEAN_ANOMALY   = 316.7119

EPHEMERIS_TYPE = 0
CLASSIFICATION_TYPE = U
NORAD_CAT_ID   = 20466
ELEMENT_SET_NO = 999
REV_AT_EPOCH   = 92396
BSTAR          = .7441337E-4
MEAN_MOTION_DOT = .639E-5
MEAN_MOTION_DDOT = 0

CCSDS_OMM_VERS = 2.0
CREATION_DATE  = 
ORIGINATOR     = 

OBJECT_NAME    = SL-14 R/B
OBJECT_ID      = 1990-018B
CENTER_NAME    = EARTH
REF_FRAME      = TEME
TIME_SYSTEM    = UTC
MEAN_ELEMENT_THEORY = SGP/SGP4

EPOCH          = 2026-02-07T04:32:25.024128
MEAN_MOTION    = 14.82113296
ECCENTRICITY   = .00160938
INCLINATION    = 82.5182
RA_OF_ASC_NODE = 251.6048
ARG_OF_PERICENTER = 187.5334
MEAN_ANOMALY   = 172.5641

EPHEMERIS_TYPE = 0
CLASSIFICATION_TYPE = U
NORAD_CAT_ID   = 20511
ELEMENT_SET_NO = 999
REV_AT_EPOCH   = 91806
BSTAR          = .64565034E-4
MEAN_MOTION_DOT = .538E-5
MEAN_MOTION_DDOT = 0

CCSDS_OMM_VERS = 2.0
CREATION_DATE  = 
ORIGINATOR     = 

OBJECT_NAME    = HST
OBJECT_ID      = 1990-037B
CENTER_NAME    = EARTH
REF_FRAME      = TEME
TIME_SYSTEM    = UTC
MEAN_ELEMENT_THEORY = SGP/SGP4

EPOCH          = 2026-02-06T19:31:08.679360
MEAN_MOTION    = 15.28986369
ECCENTRICITY   = .00018827
INCLINATION    = 28.4665
RA_OF_ASC_NODE = 250.5538
ARG_OF_PERICENTER = 124.2340
MEAN_ANOMALY   = 235.8434

EPHEMERIS_TYPE = 0
CLASSIFICATION_TYPE = U
NORAD_CAT_ID   = 20580
ELEMENT_SET_NO = 999
REV_AT_EPOCH   = 76858
BSTAR          = .28897265E-3
MEAN_MOTION_DOT = .8603E-4
MEAN_MOTION_DDOT = 0

CCSDS_OMM_VERS = 2.0
CREATION_DATE  = 
ORIGINATOR     = 

OBJECT_NAME    = SL-16 R/B
OBJECT_ID      = 1990-046B
CENTER_NAME    = EARTH
REF_FRAME      = TEME
TIME_SYSTEM    = UTC
MEAN_ELEMENT_THEORY = SGP/SGP4

EPOCH          = 2026-02-07T07:11:35.503872
MEAN_MOTION    = 14.15005591
ECCENTRICITY   = .00146212
INCLINATION    = 71.0001
RA_OF_ASC_NODE = 1.7349
ARG_OF_PERICENTER = 341.8563
MEAN_ANOMALY   = 18.2035

EPHEMERIS_TYPE = 0
CLASSIFICATION_TYPE = U
NORAD_CAT_ID   = 20625
ELEMENT_SET_NO = 999
REV_AT_EPOCH   = 84409
BSTAR          = .95212604E-4
MEAN_MOTION_DOT = .137E-5
MEAN_MOTION_DDOT = 0

CCSDS_OMM_VERS = 2.0
CREATION_DATE  = 
ORIGINATOR     = 

OBJECT_NAME    = COSMOS 2084
OBJECT_ID      = 1990-055A
CENTER_NAME    = EARTH
REF_FRAME      = TEME
TIME_SYSTEM    = UTC
MEAN_ELEMENT_THEORY = SGP/SGP4

EPOCH          = 2026-02-07T07:14:56.287968
MEAN_MOTION    = 15.05454490
ECCENTRICITY   = .00219133
INCLINATION    = 62.7898
RA_OF_ASC_NODE = 79.2043
ARG_OF_PERICENTER = 183.7432
MEAN_ANOMALY   = 176.3508

EPHEMERIS_TYPE = 0
CLASSIFICATION_TYPE = U
NORAD_CAT_ID   = 20663
ELEMENT_SET_NO = 999
REV_AT_EPOCH   = 93174
BSTAR          = .24822167E-3
MEAN_MOTION_DOT = .3398E-4
MEAN_MOTION_DDOT = 0

CCSDS_OMM_VERS = 2.0
CREATION_DATE  = 
ORIGINATOR     = 

OBJECT_NAME    = SL-6 R/B(2)
OBJECT_ID      = 1990-055D
CENTER_NAME    = EARTH
REF_FRAME      = TEME
TIME_SYSTEM    = UTC
MEAN_ELEMENT_THEORY = SGP/SGP4

EPOCH          = 2026-02-07T07:26:34.489824
MEAN_MOTION    = 15.03433149
ECCENTRICITY   = .00202219
INCLINATION    = 62.7851
RA_OF_ASC_NODE = 357.1471
ARG_OF_PERICENTER = 338.2962
MEAN_ANOMALY   = 21.7278

EPHEMERIS_TYPE = 0
CLASSIFICATION_TYPE = U
NORAD_CAT_ID   = 20666
ELEMENT_SET_NO = 999
REV_AT_EPOCH   = 93362
BSTAR          = .28058877E-3
MEAN_MOTION_DOT = .3656E-4
MEAN_MOTION_DDOT = 0

CCSDS_OMM_VERS = 2.0
CREATION_DATE  = 
ORIGINATOR     = 

OBJECT_NAME    = SL-8 R/B
OBJECT_ID      = 1990-078B
CENTER_NAME    = EARTH
REF_FRAME      = TEME
TIME_SYSTEM    = UTC
MEAN_ELEMENT_THEORY = SGP/SGP4

EPOCH          = 2026-02-07T02:59:00.303648
MEAN_MOTION    = 14.88052929
ECCENTRICITY   = .03671998
INCLINATION    = 82.9020
RA_OF_ASC_NODE = 278.7760
ARG_OF_PERICENTER = 116.4027
MEAN_ANOMALY   = 247.5372

EPHEMERIS_TYPE = 0
CLASSIFICATION_TYPE = U
NORAD_CAT_ID   = 20775
ELEMENT_SET_NO = 999
REV_AT_EPOCH   = 80475
BSTAR          = .55994451E-3
MEAN_MOTION_DOT = .18978E-3
MEAN_MOTION_DDOT = 0

CCSDS_OMM_VERS = 2.0
CREATION_DATE  = 
ORIGINATOR     = 

OBJECT_NAME    = SL-8 R/B
OBJECT_ID      = 1991-006B
CENTER_NAME    = EARTH
REF_FRAME      = TEME
TIME_SYSTEM    = UTC
MEAN_ELEMENT_THEORY = SGP/SGP4

EPOCH          = 2026-02-06T23:36:31.900320
MEAN_MOTION    = 13.77491992
ECCENTRICITY   = .0023545
INCLINATION    = 82.9428
RA_OF_ASC_NODE = 192.8748
ARG_OF_PERICENTER = 119.9931
MEAN_ANOMALY   = 0.8838

EPHEMERIS_TYPE = 0
CLASSIFICATION_TYPE = U
NORAD_CAT_ID   = 21088
ELEMENT_SET_NO = 999
REV_AT_EPOCH   = 75984
BSTAR          = .10144E-4
MEAN_MOTION_DOT = .26E-6
MEAN_MOTION_DDOT = 0

CCSDS_OMM_VERS = 2.0
CREATION_DATE  = 
ORIGINATOR     = 

OBJECT_NAME    = OKEAN-3
OBJECT_ID      = 1991-039A
CENTER_NAME    = EARTH
REF_FRAME      = TEME
TIME_SYSTEM    = UTC
MEAN_ELEMENT_THEORY = SGP/SGP4

EPOCH          = 2026-02-07T06:54:50.067936
MEAN_MOTION    = 15.04563092
ECCENTRICITY   = .00164919
INCLINATION    = 82.5182
RA_OF_ASC_NODE = 6.2867
ARG_OF_PERICENTER = 76.5487
MEAN_ANOMALY   = 283.7576

EPHEMERIS_TYPE = 0
CLASSIFICATION_TYPE = U
NORAD_CAT_ID   = 21397
ELEMENT_SET_NO = 999
REV_AT_EPOCH   = 86046
BSTAR          = .32346321E-3
MEAN_MOTION_DOT = .4576E-4
MEAN_MOTION_DDOT = 0

CCSDS_OMM_VERS = 2.0
CREATION_DATE  = 
ORIGINATOR     = 

OBJECT_NAME    = COSMOS 2151
OBJECT_ID      = 1991-042A
CENTER_NAME    = EARTH
REF_FRAME      = TEME
TIME_SYSTEM    = UTC
MEAN_ELEMENT_THEORY = SGP/SGP4

EPOCH          = 2026-02-07T06:21:50.711328
MEAN_MOTION    = 14.99987504
ECCENTRICITY   = .00131625
INCLINATION    = 82.4964
RA_OF_ASC_NODE = 113.0241
ARG_OF_PERICENTER = 156.1250
MEAN_ANOMALY   = 204.0587

EPHEMERIS_TYPE = 0
CLASSIFICATION_TYPE = U
NORAD_CAT_ID   = 21422
ELEMENT_SET_NO = 999
REV_AT_EPOCH   = 85863
BSTAR          = .21345629E-3
MEAN_MOTION_DOT = .2683E-4
MEAN_MOTION_DDOT = 0

